NORAD_CAT_ID,OBJECT_NAME,OBJECT_TYPE,EPOCH,MEAN_MOTION,ECCENTRICITY,INCLINATION,RA_OF_ASC_NODE,ARG_OF_PERICENTER,MEAN_ANOMALY,BSTAR,MEAN_MOTION_DOT,MEAN_MOTION_DDOT,TLE_LINE0,TLE_LINE1,TLE_LINE2,SEMIMAJOR_AXIS,PERIOD,APOGEE,PERIGEE,DECAYED
53551.0,STARLINK-4514,PAYLOAD,2023-03-24 15:26:03,15.0887137,0.000124,53.2164,237.1265,82.7753,277.338,0.00028082,4.188e-05,0.0,0 STARLINK-4514,1 53551U 22101AA  23083.64309626  .00004188  00000-0  28082-3 0  9991,2 53551  53.2164 237.1265 0001240  82.7753 277.3380 15.08871370 33104,6917.785,95.436,540.507,538.792,0.0
53551.0,STARLINK-4514,PAYLOAD,2023-03-24 17:01:26,15.08877225,0.0001161,53.216,236.8283,82.346,277.7664,0.00029954,4.487e-05,0.0,0 STARLINK-4514,1 53551U 22101AA  23083.70933081  .00004487  00000-0  29954-3 0  9997,2 53551  53.2160 236.8283 0001161  82.3460 277.7664 15.08877225 33776,6917.767,95.435,540.435,538.828,0.0
53551.0,STARLINK-4514,PAYLOAD,2023-03-25 02:33:47,15.08843854,0.0001183,53.2163,235.0446,75.6584,284.454,-3.1225e-06,-3.38e-06,0.0,0 STARLINK-4514,1 53551U 22101AA  23084.10679766 -.00000338  00000-0 -31225-5 0  9998,2 53551  53.2163 235.0446 0001183  75.6584 284.4540 15.08843854 33170,6917.869,95.437,540.552,538.915,0.0
53551.0,STARLINK-4514,PAYLOAD,2023-03-25 10:30:45,15.08803543,0.0001116,53.2189,233.5595,93.7525,266.3594,-0.00010811,-2.006e-05,0.0,0 STARLINK-4514,1 53551U 22101AA  23084.43802718 -.00002006  00000-0 -10811-3 0  9999,2 53551  53.2189 233.5595 0001116  93.7525 266.3594 15.08803543 33223,6917.992,95.44,540.629,539.085,0.0
53551.0,STARLINK-4514,PAYLOAD,2023-03-25 18:27:40,15.08821285,0.0001239,53.2174,232.0707,97.6866,262.4267,-0.00012662,-2.301e-05,0.0,0 STARLINK-4514,1 53551U 22101AA  23084.76922205 -.00002301  00000-0 -12662-3 0  9993,2 53551  53.2174 232.0707 0001239  97.6866 262.4267 15.08821285 33275,6917.938,95.439,540.66,538.945,0.0
53551.0,STARLINK-4514,PAYLOAD,2023-03-26 02:24:36,15.08834002,0.0001161,53.2177,230.5839,95.5322,264.5803,-0.00018869,-3.289e-05,0.0,0 STARLINK-4514,1 53551U 22101AA  23085.10041762 -.00003289  00000-0 -18869-3 0  9993,2 53551  53.2177 230.5839 0001161  95.5322 264.5803 15.08834002 33321,6917.899,95.438,540.567,538.961,0.0
53551.0,STARLINK-4514,PAYLOAD,2023-03-26 18:18:27,15.08847199,0.0001166,53.2171,227.6102,98.5833,261.5291,-0.0002847,-4.817e-05,0.0,0 STARLINK-4514,1 53551U 22101AA  23085.76281794 -.00004817  00000-0 -28470-3 0  9993,2 53551  53.2171 227.6102 0001166  98.5833 261.5291 15.08847199 33420,6917.858,95.437,540.53,538.917,0.0
53551.0,STARLINK-4514,PAYLOAD,2023-03-27 08:36:56,15.08813593,0.0001259,53.2175,224.9341,109.1031,251.0098,0.00019523,2.818e-05,0.0,0 STARLINK-4514,1 53551U 22101AA  23086.35898496  .00002818  00000-0  19523-3 0  9998,2 53551  53.2175 224.9341 0001259 109.1031 251.0098 15.08813593 33511,6917.961,95.439,540.697,538.955,0.0
53551.0,STARLINK-4514,PAYLOAD,2023-03-27 13:23:05,15.08819833,0.0001269,53.2172,224.0424,107.8413,252.2718,0.0002349,3.451e-05,0.0,0 STARLINK-4514,1 53551U 22101AA  23086.55770278  .00003451  00000-0  23490-3 0  9999,2 53551  53.2172 224.0424 0001269 107.8413 252.2718 15.08819833 34203,6917.942,95.439,540.685,538.929,0.0
53551.0,STARLINK-4514,PAYLOAD,2023-03-27 16:33:51,15.08825713,9.12e-05,53.2168,223.448,95.8306,264.279,0.00026244,3.89e-05,0.0,0 STARLINK-4514,1 53551U 22101AA  23086.69017875  .00003890  00000-0  26244-3 0  9998,2 53551  53.2168 223.4480 0000912  95.8306 264.2790 15.08825713 33569,6917.924,95.438,540.42,539.158,0.0
53551.0,STARLINK-4514,PAYLOAD,2023-03-28 02:06:10,15.08837818,0.0001241,53.2178,221.6643,88.5218,271.5916,0.00016664,2.365e-05,0.0,0 STARLINK-4514,1 53551U 22101AA  23087.08761733  .00002365  00000-0  16664-3 0  9992,2 53551  53.2178 221.6643 0001241  88.5218 271.5916 15.08837818 33625,6917.887,95.438,540.611,538.894,0.0
53551.0,STARLINK-4514,PAYLOAD,2023-03-28 13:13:52,15.08829864,0.0001795,53.2185,219.583,87.7432,272.3765,0.0001451,2.021e-05,0.0,0 STARLINK-4514,1 53551U 22101AA  23087.55130693  .00002021  00000-0  14510-3 0  9996,2 53551  53.2185 219.5830 0001795  87.7432 272.3765 15.08829864 33690,6917.911,95.438,541.018,538.535,0.0
53551.0,STARLINK-4514,PAYLOAD,2023-03-28 16:24:38,15.08842157,0.0001154,53.2177,218.9866,89.9135,270.1989,0.00011112,1.481e-05,0.0,0 STARLINK-4514,1 53551U 22101AA  23087.68377930  .00001481  00000-0  11112-3 0  9991,2 53551  53.2177 218.9866 0001154  89.9135 270.1989 15.08842157 33713,6917.874,95.437,540.537,538.94,0.0
53551.0,STARLINK-4514,PAYLOAD,2023-03-29 08:18:30,15.08839813,0.0001261,53.218,216.0162,87.444,272.6696,-1.2112e-06,-3.07e-06,0.0,0 STARLINK-4514,1 53551U 22101AA  23088.34618494 -.00000307  00000-0 -12112-5 0  9999,2 53551  53.2180 216.0162 0001261  87.4440 272.6696 15.08839813 33814,6917.881,95.438,540.618,538.874,0.0
53551.0,STARLINK-4514,PAYLOAD,2023-03-29 13:04:39,15.08839954,0.0001267,53.2181,215.1238,87.525,272.5887,-6.8777e-06,-3.97e-06,0.0,0 STARLINK-4514,1 53551U 22101AA  23088.54490485 -.00000397  00000-0 -68777-5 0  9996,2 53551  53.2181 215.1238 0001267  87.5250 272.5887 15.08839954 34509,6917.881,95.438,540.622,538.869,0.0
53551.0,STARLINK-4514,PAYLOAD,2023-03-29 16:15:24,15.08856076,0.0001225,53.2177,214.526,92.6837,267.4295,3.717e-05,3.04e-06,0.0,0 STARLINK-4514,1 53551U 22101AA  23088.67737228  .00000304  00000-0  37170-4 0  9997,2 53551  53.2177 214.5260 0001225  92.6837 267.4295 15.08856076 33862,6917.831,95.437,540.544,538.849,0.0
53551.0,STARLINK-4514,PAYLOAD,2023-03-30 11:20:03,15.08834053,0.0001246,53.2167,210.9587,101.4014,258.7118,3.3613e-05,2.47e-06,0.0,0 STARLINK-4514,1 53551U 22101AA  23089.47226323  .00000247  00000-0  33613-4 0  9999,2 53551  53.2167 210.9587 0001246 101.4014 258.7118 15.08834053 33983,6917.899,95.438,540.626,538.902,0.0
53551.0,STARLINK-4514,PAYLOAD,2023-03-30 16:06:12,15.08848325,0.0001369,53.2171,210.0649,108.7847,251.3294,2.2819e-05,7.5e-07,0.0,0 STARLINK-4514,1 53551U 22101AA  23089.67097457  .00000075  00000-0  22819-4 0  9990,2 53551  53.2171 210.0649 0001369 108.7847 251.3294 15.08848325 34014,6917.855,95.437,540.667,538.773,0.0
53551.0,STARLINK-4514,PAYLOAD,2023-03-31 12:46:13,15.08840861,0.0001661,53.2173,206.2032,85.4323,274.6859,1.1349e-05,-1.07e-06,0.0,0 STARLINK-4514,1 53551U 22101AA  23090.53210041 -.00000107  00000-0  11349-4 0  9996,2 53551  53.2173 206.2032 0001661  85.4323 274.6859 15.08840861 34140,6917.878,95.438,540.892,538.594,0.0
53551.0,STARLINK-4514,PAYLOAD,2023-03-31 14:21:36,15.08848091,0.0001491,53.2177,205.9043,93.9144,266.2019,1.4017e-05,-6.5e-07,0.0,0 STARLINK-4514,1 53551U 22101AA  23090.59833490 -.00000065  00000-0  14017-4 0  9999,2 53551  53.2177 205.9043 0001491  93.9144 266.2019 15.08848091 34157,6917.856,95.437,540.752,538.689,0.0
53551.0,STARLINK-4514,PAYLOAD,2023-04-01 12:37:01,15.0882633,0.0001733,53.2188,201.7409,120.4366,239.6797,-0.00011694,-2.148e-05,0.0,0 STARLINK-4514,1 53551U 22101AA  23091.52571637 -.00002148  00000-0 -11694-3 0  9997,2 53551  53.2188 201.7409 0001733 120.4366 239.6797 15.08826330 34294,6917.922,95.438,540.986,538.588,0.0
53551.0,STARLINK-4514,PAYLOAD,2023-04-01 15:47:47,15.08833178,0.0001461,53.2176,201.1441,118.7061,241.4078,-0.00011748,-2.157e-05,0.0,0 STARLINK-4514,1 53551U 22101AA  23091.65819245 -.00002157  00000-0 -11748-3 0  9991,2 53551  53.2176 201.1441 0001461 118.7061 241.4078 15.08833178 34315,6917.901,95.438,540.777,538.756,0.0
53551.0,STARLINK-4514,PAYLOAD,2023-04-02 12:27:47,15.08846315,0.0001346,53.2172,197.2792,107.7901,252.3238,1.394e-05,-6.6e-07,0.0,0 STARLINK-4514,1 53551U 22101AA  23092.51930319 -.00000066  00000-0  13940-4 0  9996,2 53551  53.2172 197.2792 0001346 107.7901 252.3238 15.08846315 34448,6917.861,95.437,540.657,538.795,0.0
53551.0,STARLINK-4514,PAYLOAD,2023-04-02 15:38:33,15.08854731,0.0001254,53.2179,196.686,108.7001,251.4127,7.762e-05,9.48e-06,0.0,0 STARLINK-4514,1 53551U 22101AA  23092.65177499  .00000948  00000-0  77620-4 0  9996,2 53551  53.2179 196.6860 0001254 108.7001 251.4127 15.08854731 34464,6917.835,95.437,540.568,538.833,0.0
53551.0,STARLINK-4514,PAYLOAD,2023-04-02 23:35:30,15.08844502,0.0001688,53.2171,195.1981,75.6725,284.4455,-7.7447e-05,-1.521e-05,0.0,0 STARLINK-4514,1 53551U 22101AA  23092.98298688 -.00001521  00000-0 -77447-4 0  9993,2 53551  53.2171 195.1981 0001688  75.6725 284.4455 15.08844502 34511,6917.867,95.437,540.899,538.564,0.0
53551.0,STARLINK-4514,PAYLOAD,2023-04-03 12:18:36,15.08817458,0.0001156,53.2177,192.8206,99.286,260.8263,-1.3295e-05,-4.99e-06,0.0,0 STARLINK-4514,1 53551U 22101AA  23093.51292668 -.00000499  00000-0 -13295-4 0  9999,2 53551  53.2177 192.8206 0001156  99.2860 260.8263 15.08817458 34596,6917.949,95.439,540.614,539.015,0.0
53551.0,STARLINK-4514,PAYLOAD,2023-04-03 15:29:22,15.08826632,0.0001082,53.2171,192.2242,92.5053,267.6063,5.3995e-07,-2.79e-06,0.0,0 STARLINK-4514,1 53551U 22101AA  23093.64540218 -.00000279  00000-0  53995-6 0  9998,2 53551  53.2171 192.2242 0001082  92.5053 267.6063 15.08826632 34612,6917.921,95.438,540.535,539.038,0.0
53551.0,STARLINK-4514,PAYLOAD,2023-04-03 23:26:17,15.0883668,9.35e-05,53.2169,190.7378,82.6513,277.4586,4.4807e-05,4.25e-06,0.0,0 STARLINK-4514,1 53551U 22101AA  23093.97659556  .00000425  00000-0  44807-4 0  9992,2 53551  53.2169 190.7378 0000935  82.6513 277.4586 15.08836680 34667,6917.891,95.438,540.402,539.109,0.0
53551.0,STARLINK-4514,PAYLOAD,2023-04-04 12:09:21,15.08855339,9.47e-05,53.2167,188.3595,85.6516,274.4584,4.6826e-05,4.58e-06,0.0,0 STARLINK-4514,1 53551U 22101AA  23094.50650287  .00000458  00000-0  46826-4 0  9993,2 53551  53.2167 188.3595 0000947  85.6516 274.4584 15.08855339 34744,6917.834,95.437,540.354,539.043,0.0
53551.0,STARLINK-4514,PAYLOAD,2023-04-05 05:38:37,15.08824615,0.0001018,53.2179,185.0904,87.7962,272.3146,0.00020153,2.92e-05,0.0,0 STARLINK-4514,1 53551U 22101AA  23095.23515405  .00002920  00000-0  20153-3 0  9996,2 53551  53.2179 185.0904 0001018  87.7962 272.3146 15.08824615 34859,6917.927,95.439,540.497,539.088,0.0
